start=new Date('2023-04-20T00:00:00.000Z').valueOf();
sats=[{"OBJECT_TYPE":"PAYLOAD","TLE_LINE1":"1 45399U 20019AR  23109.50256452  .00032482  00000-0  21865-2 0  9999","GP_ID":"230391471","NORAD_CAT_ID":"45399","MEAN_ANOMALY":"288.5493","ELEMENT_SET_NO":"999","SEMIMAJOR_AXIS":"6925.192","CENTER_NAME":"EARTH","MEAN_MOTION":"15.06450984","SITE":"AFETR","RCS_SIZE":"LARGE","EPHEMERIS_TYPE":"0","PERIAPSIS":"546.122","MEAN_MOTION_DDOT":"0.0000000000000","MEAN_MOTION_DOT":"0.00032482","TLE_LINE2":"2 45399  53.0544 193.5387 0001350  71.5643 288.5493 15.06450984170913","APOAPSIS":"547.992","LAUNCH_DATE":"2020-03-18","OBJECT_NAME":"STARLINK-1255","BSTAR":"0.00218650000000","INCLINATION":"53.0544","DECAY_DATE":null,"PERIOD":"95.589","CLASSIFICATION_TYPE":"U","OBJECT_ID":"2020-019AR","MEAN_ELEMENT_THEORY":"SGP4","ECCENTRICITY":"0.00013500","TIME_SYSTEM":"UTC","REV_AT_EPOCH":"17091","FILE":"3890520","EPOCH":"2023-04-19T12:03:41.574528","RA_OF_ASC_NODE":"193.5387","REF_FRAME":"TEME","COUNTRY_CODE":"US","ARG_OF_PERICENTER":"71.5643"},{"NORAD_CAT_ID":"45400","GP_ID":"230363511","TLE_LINE1":"1 45400U 20019AS  23109.58988463  .00038519  00000-0  23508-2 0  9997","OBJECT_TYPE":"PAYLOAD","CENTER_NAME":"EARTH","SEMIMAJOR_AXIS":"6914.427","ELEMENT_SET_NO":"999","MEAN_ANOMALY":"355.7922","PERIAPSIS":"533.591","RCS_SIZE":"LARGE","EPHEMERIS_TYPE":"0","SITE":"AFETR","MEAN_MOTION":"15.09970410","LAUNCH_DATE":"2020-03-18","APOAPSIS":"538.994","MEAN_MOTION_DOT":"0.00038519","TLE_LINE2":"2 45400  53.0561 192.5364 0003907   4.3102 355.7922 15.09970410170865","MEAN_MOTION_DDOT":"0.0000000000000","BSTAR":"0.00235080000000","OBJECT_NAME":"STARLINK-1213","REV_AT_EPOCH":"17086","TIME_SYSTEM":"UTC","ECCENTRICITY":"0.00039070","MEAN_ELEMENT_THEORY":"SGP4","CLASSIFICATION_TYPE":"U","OBJECT_ID":"2020-019AS","PERIOD":"95.366","DECAY_DATE":null,"INCLINATION":"53.0561","EPOCH":"2023-04-19T14:09:26.032032","FILE":"3890383","COUNTRY_CODE":"US","ARG_OF_PERICENTER":"4.3102","REF_FRAME":"TEME","RA_OF_ASC_NODE":"192.5364"},{"RA_OF_ASC_NODE":"192.5946","REF_FRAME":"TEME","COUNTRY_CODE":"US","ARG_OF_PERICENTER":"84.6914","FILE":"3890520","EPOCH":"2023-04-19T17:06:13.351392","INCLINATION":"53.0532","DECAY_DATE":null,"PERIOD":"95.588","CLASSIFICATION_TYPE":"U","OBJECT_ID":"2020-019AT","MEAN_ELEMENT_THEORY":"SGP4","ECCENTRICITY":"0.00012990","TIME_SYSTEM":"UTC","REV_AT_EPOCH":"17094","OBJECT_NAME":"STARLINK-1256","BSTAR":"0.00205440000000","MEAN_MOTION_DDOT":"0.0000000000000","TLE_LINE2":"2 45401  53.0532 192.5946 0001299  84.6914 275.4223 15.06471859170945","MEAN_MOTION_DOT":"0.00030511","APOAPSIS":"547.893","LAUNCH_DATE":"2020-03-18","MEAN_MOTION":"15.06471859","SITE":"AFETR","RCS_SIZE":"LARGE","EPHEMERIS_TYPE":"0","PERIAPSIS":"546.094","MEAN_ANOMALY":"275.4223","ELEMENT_SET_NO":"999","SEMIMAJOR_AXIS":"6925.128","CENTER_NAME":"EARTH","OBJECT_TYPE":"PAYLOAD","TLE_LINE1":"1 45401U 20019AT  23109.71265453  .00030511  00000-0  20544-2 0  9991","GP_ID":"230392471","NORAD_CAT_ID":"45401"},{"SEMIMAJOR_AXIS":"6925.320","MEAN_ANOMALY":"262.4700","ELEMENT_SET_NO":"999","CENTER_NAME":"EARTH","OBJECT_TYPE":"PAYLOAD","TLE_LINE1":"1 45402U 20019AU  23109.50900306  .00012282  00000-0  84180-3 0  9994","GP_ID":"230391221","NORAD_CAT_ID":"45402","MEAN_MOTION_DOT":"0.00012282","TLE_LINE2":"2 45402  53.0524 193.4995 0001575  97.6468 262.4700 15.06409305170927","MEAN_MOTION_DDOT":"0.0000000000000","LAUNCH_DATE":"2020-03-18","APOAPSIS":"548.276","SITE":"AFETR","MEAN_MOTION":"15.06409305","RCS_SIZE":"LARGE","EPHEMERIS_TYPE":"0","PERIAPSIS":"546.094","PERIOD":"95.592","CLASSIFICATION_TYPE":"U","OBJECT_ID":"2020-019AU","DECAY_DATE":null,"INCLINATION":"53.0524","REV_AT_EPOCH":"17092","MEAN_ELEMENT_THEORY":"SGP4","ECCENTRICITY":"0.00015750","TIME_SYSTEM":"UTC","BSTAR":"0.00084180000000","OBJECT_NAME":"STARLINK-1257","RA_OF_ASC_NODE":"193.4995","COUNTRY_CODE":"US","ARG_OF_PERICENTER":"97.6468","REF_FRAME":"TEME","FILE":"3890520","EPOCH":"2023-04-19T12:12:57.864384"},{"NORAD_CAT_ID":"45403","GP_ID":"230362261","TLE_LINE1":"1 45403U 20019AV  23109.59101825  .00041033  00000-0  27533-2 0  9997","OBJECT_TYPE":"PAYLOAD","CENTER_NAME":"EARTH","ELEMENT_SET_NO":"999","MEAN_ANOMALY":"274.6471","SEMIMAJOR_AXIS":"6925.170","PERIAPSIS":"546.119","EPHEMERIS_TYPE":"0","RCS_SIZE":"LARGE","MEAN_MOTION":"15.06458284","SITE":"AFETR","APOAPSIS":"547.950","LAUNCH_DATE":"2020-03-18","MEAN_MOTION_DDOT":"0.0000000000000","TLE_LINE2":"2 45403  53.0549 193.1415 0001322  85.4669 274.6471 15.06458284170927","MEAN_MOTION_DOT":"0.00041033","OBJECT_NAME":"STARLINK-1259","BSTAR":"0.00275330000000","ECCENTRICITY":"0.00013220","TIME_SYSTEM":"UTC","MEAN_ELEMENT_THEORY":"SGP4","REV_AT_EPOCH":"17092","DECAY_DATE":null,"INCLINATION":"53.0549","CLASSIFICATION_TYPE":"U","OBJECT_ID":"2020-019AV","PERIOD":"95.588","EPOCH":"2023-04-19T14:11:03.976800","FILE":"3890383","REF_FRAME":"TEME","ARG_OF_PERICENTER":"85.4669","COUNTRY_CODE":"US","RA_OF_ASC_NODE":"193.1415"},{"NORAD_CAT_ID":"45404","OBJECT_TYPE":"PAYLOAD","GP_ID":"230392221","TLE_LINE1":"1 45404U 20019AW  23109.46939562  .00030794  00000-0  20747-2 0  9993","CENTER_NAME":"EARTH","SEMIMAJOR_AXIS":"6925.210","MEAN_ANOMALY":"283.1131","ELEMENT_SET_NO":"999","RCS_SIZE":"LARGE","EPHEMERIS_TYPE":"0","PERIAPSIS":"546.264","SITE":"AFETR","MEAN_MOTION":"15.06445327","LAUNCH_DATE":"2020-03-18","APOAPSIS":"547.886","MEAN_MOTION_DOT":"0.00030794","TLE_LINE2":"2 45404  53.0537 193.6817 0001171  76.9989 283.1131 15.06445327170818","MEAN_MOTION_DDOT":"0.0000000000000","BSTAR":"0.00207470000000","OBJECT_NAME":"STARLINK-1260","REV_AT_EPOCH":"17081","MEAN_ELEMENT_THEORY":"SGP4","TIME_SYSTEM":"UTC","ECCENTRICITY":"0.00011710","PERIOD":"95.589","CLASSIFICATION_TYPE":"U","OBJECT_ID":"2020-019AW","INCLINATION":"53.0537","DECAY_DATE":null,"FILE":"3890520","EPOCH":"2023-04-19T11:15:55.781568","COUNTRY_CODE":"US","ARG_OF_PERICENTER":"76.9989","REF_FRAME":"TEME","RA_OF_ASC_NODE":"193.6817"},{"REV_AT_EPOCH":"17084","MEAN_ELEMENT_THEORY":"SGP4","ECCENTRICITY":"0.00014370","TIME_SYSTEM":"UTC","PERIOD":"95.589","OBJECT_ID":"2020-019AX","CLASSIFICATION_TYPE":"U","DECAY_DATE":null,"INCLINATION":"53.0545","BSTAR":"0.00210840000000","OBJECT_NAME":"STARLINK-1263","ARG_OF_PERICENTER":"84.9152","COUNTRY_CODE":"US","REF_FRAME":"TEME","RA_OF_ASC_NODE":"192.8575","FILE":"3890520","EPOCH":"2023-04-19T15:41:18.228480","CENTER_NAME":"EARTH","SEMIMAJOR_AXIS":"6925.185","MEAN_ANOMALY":"275.2001","ELEMENT_SET_NO":"999","NORAD_CAT_ID":"45405","OBJECT_TYPE":"PAYLOAD","GP_ID":"230391971","TLE_LINE1":"1 45405U 20019AX  23109.65368320  .00031308  00000-0  21084-2 0  9990","LAUNCH_DATE":"2020-03-18","APOAPSIS":"548.045","TLE_LINE2":"2 45405  53.0545 192.8575 0001437  84.9152 275.2001 15.06453295170840","MEAN_MOTION_DOT":"0.00031308","MEAN_MOTION_DDOT":"0.0000000000000","RCS_SIZE":"LARGE","EPHEMERIS_TYPE":"0","PERIAPSIS":"546.055","SITE":"AFETR","MEAN_MOTION":"15.06453295"},{"PERIAPSIS":"546.279","RCS_SIZE":"LARGE","EPHEMERIS_TYPE":"0","SITE":"AFETR","MEAN_MOTION":"15.06454894","LAUNCH_DATE":"2020-03-18","APOAPSIS":"547.811","MEAN_MOTION_DOT":"0.00025132","TLE_LINE2":"2 45406  53.0529 192.5281 0001106  76.2051 283.9061 15.06454894170858","MEAN_MOTION_DDOT":"0.0000000000000","NORAD_CAT_ID":"45406","GP_ID":"230390721","TLE_LINE1":"1 45406U 20019AY  23109.72739587  .00025132  00000-0  16976-2 0  9998","OBJECT_TYPE":"PAYLOAD","CENTER_NAME":"EARTH","SEMIMAJOR_AXIS":"6925.180","ELEMENT_SET_NO":"999","MEAN_ANOMALY":"283.9061","EPOCH":"2023-04-19T17:27:27.003168","FILE":"3890520","COUNTRY_CODE":"US","ARG_OF_PERICENTER":"76.2051","REF_FRAME":"TEME","RA_OF_ASC_NODE":"192.5281","BSTAR":"0.00169760000000","OBJECT_NAME":"STARLINK-1265","REV_AT_EPOCH":"17085","TIME_SYSTEM":"UTC","ECCENTRICITY":"0.00011060","MEAN_ELEMENT_THEORY":"SGP4","CLASSIFICATION_TYPE":"U","OBJECT_ID":"2020-019AY","PERIOD":"95.589","DECAY_DATE":null,"INCLINATION":"53.0529"},{"NORAD_CAT_ID":"45407","TLE_LINE1":"1 45407U 20019AZ  23109.54215035  .00041448  00000-0  27799-2 0  9999","GP_ID":"230391472","OBJECT_TYPE":"PAYLOAD","CENTER_NAME":"EARTH","ELEMENT_SET_NO":"999","MEAN_ANOMALY":"286.3254","SEMIMAJOR_AXIS":"6925.135","PERIAPSIS":"546.112","EPHEMERIS_TYPE":"0","RCS_SIZE":"LARGE","MEAN_MOTION":"15.06469816","SITE":"AFETR","APOAPSIS":"547.887","LAUNCH_DATE":"2020-03-18","MEAN_MOTION_DDOT":"0.0000000000000","TLE_LINE2":"2 45407  53.0536 193.3594 0001282  73.7876 286.3254 15.06469816170823","MEAN_MOTION_DOT":"0.00041448","OBJECT_NAME":"STARLINK-1275","BSTAR":"0.00277990000000","TIME_SYSTEM":"UTC","ECCENTRICITY":"0.00012820","MEAN_ELEMENT_THEORY":"SGP4","REV_AT_EPOCH":"17082","DECAY_DATE":null,"INCLINATION":"53.0536","OBJECT_ID":"2020-019AZ","CLASSIFICATION_TYPE":"U","PERIOD":"95.588","EPOCH":"2023-04-19T13:00:41.790240","FILE":"3890520","REF_FRAME":"TEME","ARG_OF_PERICENTER":"73.7876","COUNTRY_CODE":"US","RA_OF_ASC_NODE":"193.3594"},{"OBJECT_ID":"2020-019BA","CLASSIFICATION_TYPE":"U","PERIOD":"95.589","DECAY_DATE":null,"INCLINATION":"53.0537","REV_AT_EPOCH":"17042","ECCENTRICITY":"0.00011540","TIME_SYSTEM":"UTC","MEAN_ELEMENT_THEORY":"SGP4","BSTAR":"0.00248390000000","OBJECT_NAME":"STARLINK-1278","RA_OF_ASC_NODE":"222.9999","ARG_OF_PERICENTER":"77.7802","COUNTRY_CODE":"US","REF_FRAME":"TEME","EPOCH":"2023-04-19T14:54:52.057440","FILE":"3890520","SEMIMAJOR_AXIS":"6925.196","ELEMENT_SET_NO":"999","MEAN_ANOMALY":"282.3316","CENTER_NAME":"EARTH","GP_ID":"230391723","TLE_LINE1":"1 45408U 20019BA  23109.62143585  .00036961  00000-0  24839-2 0  9995","OBJECT_TYPE":"PAYLOAD","NORAD_CAT_ID":"45408","MEAN_MOTION_DOT":"0.00036961","TLE_LINE2":"2 45408  53.0537 222.9999 0001154  77.7802 282.3316 15.06449833170422","MEAN_MOTION_DDOT":"0.0000000000000","LAUNCH_DATE":"2020-03-18","APOAPSIS":"547.860","SITE":"AFETR","MEAN_MOTION":"15.06449833","PERIAPSIS":"546.262","EPHEMERIS_TYPE":"0","RCS_SIZE":"LARGE"}];
